{"type": "FeatureCollection", "features": [ {"type": "Feature", "properties": {"norad_id": 66925, "name": "STARLINK-35945", "group": "last-30-days", "lat": 9.102811827935437, "lon": -147.4008415461058, "alt_km": 295.8091381085642, "timestamp": "2025-12-14T22:38:39.519592+00:00", "meta": {"OBJECT_NAME": "STARLINK-35945", "OBJECT_ID": "2025-286A", "EPOCH": "2025-12-14T06:00:02.999808", "MEAN_MOTION": 15.93822682, "ECCENTRICITY": 8.443e-05, "INCLINATION": 53.1578, "RA_OF_ASC_NODE": 43.0382, "ARG_OF_PERICENTER": 85.9465, "MEAN_ANOMALY": 63.2898, "EPHEMERIS_TYPE": 0, "CLASSIFICATION_TYPE": "U", "NORAD_CAT_ID": 66925, "ELEMENT_SET_NO": 999, "REV_AT_EPOCH": 223, "BSTAR": -0.003353938, "MEAN_MOTION_DOT": -0.01252121, "MEAN_MOTION_DDOT": 0.00046857117}, "tle": {"line1": "1 66925U 25286A   25348.25003472 -.01252121  46857-3 -33539-2 0  9990", "line2": "2 66925  53.1578  43.0382 0000844  85.9465  63.2898 15.93822682  2231"}}, "geometry": {"type": "Point", "coordinates": [-147.4008415461058, 9.102811827935437]}}, {"type": "Feature", "properties": {"norad_id": 66926, "name": "STARLINK-35942", "group": "last-30-days", "lat": 6.122263838658464, "lon": -145.12184628167225, "alt_km": 295.9140848490397, "timestamp": "2025-12-14T22:38:39.519604+00:00", "meta": {"OBJECT_NAME": "STARLINK-35942", "OBJECT_ID": "2025-286B", "EPOCH": "2025-12-14T06:00:02.999808", "MEAN_MOTION": 15.939754, "ECCENTRICITY": 8.155e-05, "INCLINATION": 53.1577, "RA_OF_ASC_NODE": 43.031, "ARG_OF_PERICENTER": 85.2168, "MEAN_ANOMALY": 67.4039, "EPHEMERIS_TYPE": 0, "CLASSIFICATION_TYPE": "U", "NORAD_CAT_ID": 66926, "ELEMENT_SET_NO": 999, "REV_AT_EPOCH": 223, "BSTAR": -0.0033646243, "MEAN_MOTION_DOT": -0.01266163, "MEAN_MOTION_DDOT": 0.0004789048}, "tle": {"line1": "1 66926U 25286B   25348.25003472 -.01266163  47890-3 -33646-2 0  9999", "line2": "2 66926  53.1577  43.0310 0000815  85.2168  67.4039 15.93975400  2233"}}, "geometry": {"type": "Point", "coordinates": [-145.12184628167225, 6.122263838658464]}}, {"type": "Feature", "properties": {"norad_id": 66927, "name": "STARLINK-35943", "group": "last-30-days", "lat": 4.806771272433789, "lon": -144.12694888061213, "alt_km": 295.9656255005657, "timestamp": "2025-12-14T22:38:39.519615+00:00", "meta": {"OBJECT_NAME": "STARLINK-35943", "OBJECT_ID": "2025-286C", "EPOCH": "2025-12-14T06:00:02.999808", "MEAN_MOTION": 15.94040775, "ECCENTRICITY": 9.16e-05, "INCLINATION": 53.1578, "RA_OF_ASC_NODE": 43.0282, "ARG_OF_PERICENTER": 82.0286, "MEAN_ANOMALY": 72.0745, "EPHEMERIS_TYPE": 0, "CLASSIFICATION_TYPE": "U", "NORAD_CAT_ID": 66927, "ELEMENT_SET_NO": 999, "REV_AT_EPOCH": 223, "BSTAR": -0.0033516287, "MEAN_MOTION_DOT": -0.01265678, "MEAN_MOTION_DDOT": 0.00047888177}, "tle": {"line1": "1 66927U 25286C   25348.25003472 -.01265678  47888-3 -33516-2 0  9993", "line2": "2 66927  53.1578  43.0282 0000916  82.0286  72.0745 15.94040775  2236"}}, "geometry": {"type": "Point", "coordinates": [-144.12694888061213, 4.806771272433789]}}, {"type": "Feature", "properties": {"norad_id": 66928, "name": "STARLINK-35944", "group": "last-30-days", "lat": 7.458379080229811, "lon": -146.13845708741536, "alt_km": 295.9147302192205, "timestamp": "2025-12-14T22:38:39.519625+00:00", "meta": {"OBJECT_NAME": "STARLINK-35944", "OBJECT_ID": "2025-286D", "EPOCH": "2025-12-14T06:00:02.999808", "MEAN_MOTION": 15.93907719, "ECCENTRICITY": 8.996e-05, "INCLINATION": 53.1578, "RA_OF_ASC_NODE": 43.0342, "ARG_OF_PERICENTER": 80.6403, "MEAN_ANOMALY": 70.4608, "EPHEMERIS_TYPE": 0, "CLASSIFICATION_TYPE": "U", "NORAD_CAT_ID": 66928, "ELEMENT_SET_NO": 999, "REV_AT_EPOCH": 223, "BSTAR": -0.0033573612, "MEAN_MOTION_DOT": -0.01258991, "MEAN_MOTION_DDOT": 0.00047366001}, "tle": {"line1": "1 66928U 25286D   25348.25003472 -.01258991  47366-3 -33574-2 0  9999", "line2": "2 66928  53.1578  43.0342 0000899  80.6403  70.4608 15.93907719  2238"}}, "geometry": {"type": "Point", "coordinates": [-146.13845708741536, 7.458379080229811]}}, {"type": "Feature", "properties": {"norad_id": 66929, "name": "STARLINK-36169", "group": "last-30-days", "lat": 3.3673224387722382, "lon": -143.04447104006604, "alt_km": 296.07495519844815, "timestamp": "2025-12-14T22:38:39.519640+00:00", "meta": {"OBJECT_NAME": "STARLINK-36169", "OBJECT_ID": "2025-286E", "EPOCH": "2025-12-14T06:00:02.999808", "MEAN_MOTION": 15.94110978, "ECCENTRICITY": 9.68e-05, "INCLINATION": 53.1577, "RA_OF_ASC_NODE": 43.0246, "ARG_OF_PERICENTER": 76.3228, "MEAN_ANOMALY": 79.4117, "EPHEMERIS_TYPE": 0, "CLASSIFICATION_TYPE": "U", "NORAD_CAT_ID": 66929, "ELEMENT_SET_NO": 999, "REV_AT_EPOCH": 223, "BSTAR": -0.003349185, "MEAN_MOTION_DOT": -0.01269447, "MEAN_MOTION_DDOT": 0.00048181742}, "tle": {"line1": "1 66929U 25286E   25348.25003472 -.01269447  48182-3 -33492-2 0  9994", "line2": "2 66929  53.1577  43.0246 0000968  76.3228  79.4117 15.94110978  2233"}}, "geometry": {"type": "Point", "coordinates": [-143.04447104006604, 3.3673224387722382]}}, {"type": "Feature", "properties": {"norad_id": 66930, "name": "STARLINK-36206", "group": "last-30-days", "lat": 2.0890824493346094, "lon": -142.0866415794028, "alt_km": 296.0887004468668, "timestamp": "2025-12-14T22:38:39.519650+00:00", "meta": {"OBJECT_NAME": "STARLINK-36206", "OBJECT_ID": "2025-286F", "EPOCH": "2025-12-14T06:00:02.999808", "MEAN_MOTION": 15.94182306, "ECCENTRICITY": 9.711e-05, "INCLINATION": 53.1576, "RA_OF_ASC_NODE": 43.0215, "ARG_OF_PERICENTER": 78.1598, "MEAN_ANOMALY": 79.0139, "EPHEMERIS_TYPE": 0, "CLASSIFICATION_TYPE": "U", "NORAD_CAT_ID": 66930, "ELEMENT_SET_NO": 999, "REV_AT_EPOCH": 223, "BSTAR": -0.0033676225, "MEAN_MOTION_DOT": -0.01281152, "MEAN_MOTION_DDOT": 0.00049028429}, "tle": {"line1": "1 66930U 25286F   25348.25003472 -.01281152  49028-3 -33676-2 0  9997", "line2": "2 66930  53.1576  43.0215 0000971  78.1598  79.0139 15.94182306  2238"}}, "geometry": {"type": "Point", "coordinates": [-142.0866415794028, 2.0890824493346094]}}, {"type": "Feature", "properties": {"norad_id": 66931, "name": "STARLINK-36130", "group": "last-30-days", "lat": 0.6002994171802385, "lon": -140.9733537958282, "alt_km": 296.1147311453151, "timestamp": "2025-12-14T22:38:39.519679+00:00", "meta": {"OBJECT_NAME": "STARLINK-36130", "OBJECT_ID": "2025-286G", "EPOCH": "2025-12-14T06:00:02.999808", "MEAN_MOTION": 15.94255449, "ECCENTRICITY": 9.978e-05, "INCLINATION": 53.1576, "RA_OF_ASC_NODE": 43.018, "ARG_OF_PERICENTER": 77.5823, "MEAN_ANOMALY": 81.2687, "EPHEMERIS_TYPE": 0, "CLASSIFICATION_TYPE": "U", "NORAD_CAT_ID": 66931, "ELEMENT_SET_NO": 999, "REV_AT_EPOCH": 223, "BSTAR": -0.0033539757, "MEAN_MOTION_DOT": -0.01280946, "MEAN_MOTION_DDOT": 0.00049049873}, "tle": {"line1": "1 66931U 25286G   25348.25003472 -.01280946  49050-3 -33540-2 0  9993", "line2": "2 66931  53.1576  43.0180 0000997  77.5823  81.2687 15.94255449  2234"}}, "geometry": {"type": "Point", "coordinates": [-140.9733537958282, 0.6002994171802385]}}, {"type": "Feature", "properties": {"norad_id": 66932, "name": "STARLINK-36177", "group": "last-30-days", "lat": -0.8494790981795577, "lon": -139.89000000130898, "alt_km": 296.03977215450504, "timestamp": "2025-12-14T22:38:39.519690+00:00", "meta": {"OBJECT_NAME": "STARLINK-36177", "OBJECT_ID": "2025-286H", "EPOCH": "2025-12-14T06:00:02.999808", "MEAN_MOTION": 15.94330571, "ECCENTRICITY": 0.00010163, "INCLINATION": 53.1576, "RA_OF_ASC_NODE": 43.0146, "ARG_OF_PERICENTER": 77.5463, "MEAN_ANOMALY": 82.9325, "EPHEMERIS_TYPE": 0, "CLASSIFICATION_TYPE": "U", "NORAD_CAT_ID": 66932, "ELEMENT_SET_NO": 999, "REV_AT_EPOCH": 223, "BSTAR": -0.0033472707, "MEAN_MOTION_DOT": -0.01283488, "MEAN_MOTION_DDOT": 0.00049264222}, "tle": {"line1": "1 66932U 25286H   25348.25003472 -.01283488  49264-3 -33473-2 0  9990", "line2": "2 66932  53.1576  43.0146 0001016  77.5463  82.9325 15.94330571  2237"}}, "geometry": {"type": "Point", "coordinates": [-139.89000000130898, -0.8494790981795577]}}, {"type": "Feature", "properties": {"norad_id": 66933, "name": "STARLINK-36157", "group": "last-30-days", "lat": -2.2663682068743674, "lon": -138.83018328094514, "alt_km": 296.13554891065905, "timestamp": "2025-12-14T22:38:39.519700+00:00", "meta": {"OBJECT_NAME": "STARLINK-36157", "OBJECT_ID": "2025-286J", "EPOCH": "2025-12-14T06:00:02.999808", "MEAN_MOTION": 15.94407989, "ECCENTRICITY": 9.302e-05, "INCLINATION": 53.1576, "RA_OF_ASC_NODE": 43.0113, "ARG_OF_PERICENTER": 78.7818, "MEAN_ANOMALY": 83.298, "EPHEMERIS_TYPE": 0, "CLASSIFICATION_TYPE": "U", "NORAD_CAT_ID": 66933, "ELEMENT_SET_NO": 999, "REV_AT_EPOCH": 223, "BSTAR": -0.0033687332, "MEAN_MOTION_DOT": -0.01296892, "MEAN_MOTION_DDOT": 0.00050244012}, "tle": {"line1": "1 66933U 25286J   25348.25003472 -.01296892  50244-3 -33687-2 0  9991", "line2": "2 66933  53.1576  43.0113 0000930  78.7818  83.2980 15.94407989  2232"}}, "geometry": {"type": "Point", "coordinates": [-138.83018328094514, -2.2663682068743674]}}, {"type": "Feature", "properties": {"norad_id": 66934, "name": "STARLINK-36153", "group": "last-30-days", "lat": -3.6981426568270566, "lon": -137.75677198076022, "alt_km": 296.1690163283465, "timestamp": "2025-12-14T22:38:39.519709+00:00", "meta": {"OBJECT_NAME": "STARLINK-36153", "OBJECT_ID": "2025-286K", "EPOCH": "2025-12-14T06:00:02.999808", "MEAN_MOTION": 15.94481185, "ECCENTRICITY": 9.583e-05, "INCLINATION": 53.1576, "RA_OF_ASC_NODE": 43.0077, "ARG_OF_PERICENTER": 78.2208, "MEAN_ANOMALY": 85.4795, "EPHEMERIS_TYPE": 0, "CLASSIFICATION_TYPE": "U", "NORAD_CAT_ID": 66934, "ELEMENT_SET_NO": 999, "REV_AT_EPOCH": 223, "BSTAR": -0.0033758797, "MEAN_MOTION_DOT": -0.01304644, "MEAN_MOTION_DDOT": 0.00050829604}, "tle": {"line1": "1 66934U 25286K   25348.25003472 -.01304644  50830-3 -33759-2 0  9998", "line2": "2 66934  53.1576  43.0077 0000958  78.2208  85.4795 15.94481185  2238"}}, "geometry": {"type": "Point", "coordinates": [-137.75677198076022, -3.6981426568270566]}}]}